NORAD_CAT_ID,OBJECT_NAME,OBJECT_TYPE,EPOCH,MEAN_MOTION,ECCENTRICITY,INCLINATION,RA_OF_ASC_NODE,ARG_OF_PERICENTER,MEAN_ANOMALY,BSTAR,MEAN_MOTION_DOT,MEAN_MOTION_DDOT,TLE_LINE0,TLE_LINE1,TLE_LINE2,SEMIMAJOR_AXIS,PERIOD,APOGEE,PERIGEE,DECAYED
53638.0,STARLINK-4594,PAYLOAD,2023-06-26 17:36:09,15.08840544,0.0001083,53.2181,334.373,96.3603,263.7513,0.00031837,4.783e-05,0.0,0 STARLINK-4594,1 53638U 22104BC  23177.73343750  .00004783  00000-0  31837-3 0  9993,2 53638  53.2181 334.3730 0001083  96.3603 263.7513 15.08840544 46218,6917.879,95.438,540.493,538.995,0.0
53638.0,STARLINK-4594,PAYLOAD,2023-06-27 17:26:56,15.08843008,0.0001165,53.2189,329.9129,103.7125,256.3997,0.00019434,2.807e-05,0.0,0 STARLINK-4594,1 53638U 22104BC  23178.72703762  .00002807  00000-0  19434-3 0  9990,2 53638  53.2189 329.9129 0001165 103.7125 256.3997 15.08843008 46369,6917.871,95.437,540.542,538.93,0.0
53638.0,STARLINK-4594,PAYLOAD,2023-06-29 09:11:34,15.08846343,0.0001077,53.218,322.4779,100.1175,259.9939,0.00020618,2.996e-05,0.0,0 STARLINK-4594,1 53638U 22104BC  23180.38303543  .00002996  00000-0  20618-3 0  9993,2 53638  53.2180 322.4779 0001077 100.1175 259.9939 15.08846343 46615,6917.861,95.437,540.471,538.981,0.0
53638.0,STARLINK-4594,PAYLOAD,2023-06-30 15:23:54,15.08839201,0.0001143,53.2172,316.8268,92.6614,267.4509,-1.3412e-05,-5.01e-06,0.0,0 STARLINK-4594,1 53638U 22104BC  23181.64159740 -.00000501  00000-0 -13412-4 0  9998,2 53638  53.2172 316.8268 0001143  92.6614 267.4509 15.08839201 46806,6917.883,95.438,540.539,538.957,0.0
53638.0,STARLINK-4594,PAYLOAD,2023-07-02 08:43:56,15.0883487,0.0001132,53.2169,309.0961,90.3457,269.7665,0.00014399,2.004e-05,0.0,0 STARLINK-4594,1 53638U 22104BC  23183.36384342  .00002004  00000-0  14399-3 0  9999,2 53638  53.2169 309.0961 0001132  90.3457 269.7665 15.08834870 47068,6917.896,95.438,540.544,538.978,0.0
53638.0,STARLINK-4594,PAYLOAD,2023-07-03 11:45:29,15.08840326,0.0001139,53.2174,304.0411,93.6474,266.4649,0.00011714,1.577e-05,0.0,0 STARLINK-4594,1 53638U 22104BC  23184.48992207  .00001577  00000-0  11714-3 0  9990,2 53638  53.2174 304.0411 0001139  93.6474 266.4649 15.08840326 47239,6917.879,95.438,540.532,538.956,0.0
53638.0,STARLINK-4594,PAYLOAD,2023-07-04 11:36:16,15.08835349,0.0001023,53.2178,299.582,89.9506,270.1604,4.9606e-05,5.02e-06,0.0,0 STARLINK-4594,1 53638U 22104BC  23185.48352779  .00000502  00000-0  49606-4 0  9994,2 53638  53.2178 299.5820 0001023  89.9506 270.1604 15.08835349 47389,6917.895,95.438,540.467,539.052,0.0
53638.0,STARLINK-4594,PAYLOAD,2023-07-05 14:37:50,15.08839553,0.0001348,53.2182,294.5269,100.1384,259.976,1.2957e-06,-2.67e-06,0.0,0 STARLINK-4594,1 53638U 22104BC  23186.60960790 -.00000267  00000-0  12957-5 0  9996,2 53638  53.2182 294.5269 0001348 100.1384 259.9760 15.08839553 47554,6917.882,95.438,540.679,538.814,0.0
53638.0,STARLINK-4594,PAYLOAD,2023-07-06 16:04:00,15.08840793,0.0001221,53.2175,289.7674,94.4991,265.614,0.00014117,1.96e-05,0.0,0 STARLINK-4594,1 53638U 22104BC  23187.66944613  .00001960  00000-0  14117-3 0  9997,2 53638  53.2175 289.7674 0001221  94.4991 265.6140 15.08840793 47713,6917.878,95.438,540.588,538.898,0.0
53638.0,STARLINK-4594,PAYLOAD,2023-07-07 15:54:46,15.08856597,0.0001031,53.2169,285.3064,89.6405,270.4706,0.00022149,3.241e-05,0.0,0 STARLINK-4594,1 53638U 22104BC  23188.66303303  .00003241  00000-0  22149-3 0  9991,2 53638  53.2169 285.3064 0001031  89.6405 270.4706 15.08856597 47863,6917.83,95.437,540.408,538.981,0.0
53638.0,STARLINK-4594,PAYLOAD,2023-07-07 23:51:42,15.08848492,0.0001066,53.2179,283.8206,87.4579,272.6535,0.00013804,1.91e-05,0.0,0 STARLINK-4594,1 53638U 22104BC  23188.99423897  .00001910  00000-0  13804-3 0  9997,2 53638  53.2179 283.8206 0001066  87.4579 272.6535 15.08848492 47916,6917.854,95.437,540.457,538.982,0.0
53638.0,STARLINK-4594,PAYLOAD,2023-07-08 06:13:15,15.08842604,0.0001078,53.2166,282.6306,104.5656,255.5456,2.5528e-05,1.19e-06,0.0,0 STARLINK-4594,1 53638U 22104BC  23189.25920228  .00000119  00000-0  25528-4 0  9994,2 53638  53.2166 282.6306 0001078 104.5656 255.5456 15.08842604 47955,6917.872,95.437,540.483,538.992,0.0
53638.0,STARLINK-4594,PAYLOAD,2023-07-08 23:42:29,15.08839495,0.0001015,53.2167,279.3597,98.0631,262.0476,-1.5536e-05,-5.35e-06,0.0,0 STARLINK-4594,1 53638U 22104BC  23189.98784672 -.00000535  00000-0 -15536-4 0  9997,2 53638  53.2167 279.3597 0001015  98.0631 262.0476 15.08839495 48064,6917.882,95.438,540.449,539.045,0.0
53638.0,STARLINK-4594,PAYLOAD,2023-07-10 12:16:21,15.08839328,0.0001084,53.2176,272.5216,94.0687,266.0429,0.00011485,1.54e-05,0.0,0 STARLINK-4594,1 53638U 22104BC  23191.51136558  .00001540  00000-0  11485-3 0  9996,2 53638  53.2176 272.5216 0001084  94.0687 266.0429 15.08839328 48292,6917.882,95.438,540.497,538.998,0.0
53638.0,STARLINK-4594,PAYLOAD,2023-07-11 04:10:13,15.08833492,0.0001099,53.2173,269.5476,91.6019,268.5099,0.00010868,1.442e-05,0.0,0 STARLINK-4594,1 53638U 22104BC  23192.17377133  .00001442  00000-0  10868-3 0  9990,2 53638  53.2173 269.5476 0001099  91.6019 268.5099 15.08833492 48398,6917.9,95.438,540.526,539.005,0.0
53638.0,STARLINK-4594,PAYLOAD,2023-07-11 16:53:18,15.08843116,0.0001063,53.217,267.168,89.1836,270.9278,0.00015108,2.118e-05,0.0,0 STARLINK-4594,1 53638U 22104BC  23192.70368577  .00002118  00000-0  15108-3 0  9994,2 53638  53.2170 267.1680 0001063  89.1836 270.9278 15.08843116 48475,6917.871,95.437,540.471,539.0,0.0
53638.0,STARLINK-4594,PAYLOAD,2023-07-11 21:39:28,15.08837439,0.0001101,53.2174,266.2759,89.7578,270.354,7.4592e-05,8.99e-06,0.0,0 STARLINK-4594,1 53638U 22104BC  23192.90241155  .00000899  00000-0  74592-4 0  9995,2 53638  53.2174 266.2759 0001101  89.7578 270.3540 15.08837439 48509,6917.888,95.438,540.515,538.992,0.0
53638.0,STARLINK-4594,PAYLOAD,2023-07-13 11:48:43,15.08839147,0.0001238,53.2176,259.1379,91.1004,269.013,1.1623e-05,-1.03e-06,0.0,0 STARLINK-4594,1 53638U 22104BC  23194.49217400 -.00000103  00000-0  11623-4 0  9992,2 53638  53.2176 259.1379 0001238  91.1004 269.0130 15.08839147 48746,6917.883,95.438,540.604,538.892,0.0
53638.0,STARLINK-4594,PAYLOAD,2023-07-14 13:14:53,15.08848577,0.0001109,53.2168,254.3804,85.5902,274.5217,2.8322e-06,-2.43e-06,0.0,0 STARLINK-4594,1 53638U 22104BC  23195.55201182 -.00000243  00000-0  28322-5 0  9990,2 53638  53.2168 254.3804 0001109  85.5902 274.5217 15.08848577 48900,6917.854,95.437,540.486,538.952,0.0
53638.0,STARLINK-4594,PAYLOAD,2023-07-15 21:02:36,15.08841584,0.0001133,53.2151,248.4335,83.2036,276.9085,0.00012321,1.674e-05,0.0,0 STARLINK-4594,1 53638U 22104BC  23196.87681283  .00001674  00000-0  12321-3 0  9998,2 53638  53.2151 248.4335 0001133  83.2036 276.9085 15.08841584 49108,6917.876,95.437,540.524,538.957,0.0
53638.0,STARLINK-4594,PAYLOAD,2023-07-16 09:45:42,15.08831954,0.0001195,53.2151,246.0555,79.9632,280.1495,-2.6923e-05,-7.16e-06,0.0,0 STARLINK-4594,1 53638U 22104BC  23197.40673915 -.00000716  00000-0 -26923-4 0  9993,2 53638  53.2151 246.0555 0001195  79.9632 280.1495 15.08831954 49188,6917.905,95.438,540.597,538.943,0.0
53638.0,STARLINK-4594,PAYLOAD,2023-07-17 08:01:05,15.08844742,0.0001153,53.2158,241.89,99.8217,260.2905,1.3308e-05,-7.6e-07,0.0,0 STARLINK-4594,1 53638U 22104BC  23198.33409319 -.00000076  00000-0  13308-4 0  9992,2 53638  53.2158 241.8900 0001153  99.8217 260.2905 15.08844742 49326,6917.866,95.437,540.529,538.933,0.0
53638.0,STARLINK-4594,PAYLOAD,2023-07-18 11:02:39,15.08837935,0.0001109,53.2159,236.835,96.1071,264.0047,0.00011352,1.519e-05,0.0,0 STARLINK-4594,1 53638U 22104BC  23199.46017601  .00001519  00000-0  11352-3 0  9994,2 53638  53.2159 236.8350 0001109  96.1071 264.0047 15.08837935 49492,6917.887,95.438,540.519,538.985,0.0
53638.0,STARLINK-4594,PAYLOAD,2023-07-19 10:53:26,15.0883877,0.0001199,53.216,232.3741,101.3426,258.7701,2.7128e-05,1.44e-06,0.0,0 STARLINK-4594,1 53638U 22104BC  23200.45377985  .00000144  00000-0  27128-4 0  9992,2 53638  53.2160 232.3741 0001199 101.3426 258.7701 15.08838770 49643,6917.884,95.438,540.579,538.92,0.0
53638.0,STARLINK-4594,PAYLOAD,2023-07-20 10:44:14,15.08835086,0.0001244,53.2166,227.9126,93.8995,266.2139,1.9076e-05,1.6e-07,0.0,0 STARLINK-4594,1 53638U 22104BC  23201.44738495  .00000016  00000-0  19076-4 0  9990,2 53638  53.2166 227.9126 0001244  93.8995 266.2139 15.08835086 49795,6917.895,95.438,540.621,538.9,0.0
53638.0,STARLINK-4594,PAYLOAD,2023-07-24 10:07:21,15.08848062,9.72e-05,53.2154,210.0712,101.4277,258.6825,-0.000181,-3.168e-05,0.0,0 STARLINK-4594,1 53638U 22104BC  23205.42177455 -.00003168  00000-0 -18100-3 0  9994,2 53638  53.2154 210.0712 0000972 101.4277 258.6825 15.08848062 51419,6917.856,95.437,540.393,539.048,0.0
53638.0,STARLINK-4594,PAYLOAD,2023-07-25 06:47:22,15.08828261,9.67e-05,53.2157,206.2047,117.0352,243.0739,6.5266e-05,7.51e-06,0.0,0 STARLINK-4594,1 53638U 22104BC  23206.28290263  .00000751  00000-0  65266-4 0  9991,2 53638  53.2157 206.2047 0000967 117.0352 243.0739 15.08828261 51546,6917.916,95.438,540.45,539.112,0.0
53638.0,STARLINK-4594,PAYLOAD,2023-07-26 03:27:23,15.08834306,8.58e-05,53.2148,202.3398,86.628,273.481,8.568e-05,1.076e-05,0.0,0 STARLINK-4594,1 53638U 22104BC  23207.14402477  .00001076  00000-0  85680-4 0  9992,2 53638  53.2148 202.3398 0000858  86.6280 273.4810 15.08834306 51670,6917.898,95.438,540.356,539.169,0.0
53638.0,STARLINK-4594,PAYLOAD,2023-07-26 06:38:09,15.08836331,9.29e-05,53.2152,201.7452,92.2506,267.8593,9.887e-05,1.286e-05,0.0,0 STARLINK-4594,1 53638U 22104BC  23207.27650373  .00001286  00000-0  98870-4 0  9994,2 53638  53.2152 201.7452 0000929  92.2506 267.8593 15.08836331 50676,6917.892,95.438,540.399,539.114,0.0
53638.0,STARLINK-4594,PAYLOAD,2023-07-27 06:28:57,15.08838985,9.57e-05,53.2153,197.2859,86.8944,273.2158,0.00013737,1.899e-05,0.0,0 STARLINK-4594,1 53638U 22104BC  23208.27010456  .00001899  00000-0  13737-3 0  9995,2 53638  53.2153 197.2859 0000957  86.8944 273.2158 15.08838985 51848,6917.883,95.438,540.411,539.086,0.0
